LANDSAT 9               
1 49260U 21088A   24225.20525924  .00001638  00000+0  37372-3 0  9996
2 49260  98.2284 294.1082 0001157  84.6066 275.5265 14.57099480152845
